FORMOSAT-3 FM4          
1 29051U 06011E   17345.88881437  .00000105  00000-0  56609-4 0  9998
2 29051  72.0038 166.7641 0066688  72.7460 288.0960 14.28636830610999
